{
    "links": {
        "self": "http://www.neowsapp.com/rest/v1/neo/3759282?api_key=iIulBulltgU6a56xZRHN4H3l9WmuAYTsLGpBGhQ2"
    },
    "id": "3759282",
    "neo_reference_id": "3759282",
    "name": "(2016 RZ19)",
    "designation": "2016 RZ19",
    "nasa_jpl_url": "http://ssd.jpl.nasa.gov/sbdb.cgi?sstr=3759282",
    "absolute_magnitude_h": 24.2,
    "estimated_diameter": {
        "kilometers": {
            "estimated_diameter_min": 0.0384197891,
            "estimated_diameter_max": 0.0859092601
        },
        "meters": {
            "estimated_diameter_min": 38.4197891064,
            "estimated_diameter_max": 85.9092601232
        },
        "miles": {
            "estimated_diameter_min": 0.0238729428,
            "estimated_diameter_max": 0.0533815229
        },
        "feet": {
            "estimated_diameter_min": 126.0491808919,
            "estimated_diameter_max": 281.8545369825
        }
    },
    "is_potentially_hazardous_asteroid": false,
    "close_approach_data": [
        {
            "close_approach_date": "2015-12-03",
            "close_approach_date_full": "2015-Dec-03 05:57",
            "epoch_date_close_approach": 1449122220000,
            "relative_velocity": {
                "kilometers_per_second": "8.7503792361",
                "kilometers_per_hour": "31501.3652499973",
                "miles_per_hour": "19573.7233132552"
            },
            "miss_distance": {
                "astronomical": "0.0063070874",
                "lunar": "2.4534569986",
                "kilometers": "943526.840943838",
                "miles": "586280.3927794444"
            },
            "orbiting_body": "Mars"
        },
        {
            "close_approach_date": "2016-08-27",
            "close_approach_date_full": "2016-Aug-27 01:02",
            "epoch_date_close_approach": 1472259720000,
            "relative_velocity": {
                "kilometers_per_second": "11.6541627531",
                "kilometers_per_hour": "41954.9859112396",
                "miles_per_hour": "26069.1966624588"
            },
            "miss_distance": {
                "astronomical": "0.1457092392",
                "lunar": "56.6808940488",
                "kilometers": "21797791.823640504",
                "miles": "13544519.7714827952"
            },
            "orbiting_body": "Earth"
        },
        {
            "close_approach_date": "2181-08-28",
            "close_approach_date_full": "2181-Aug-28 20:36",
            "epoch_date_close_approach": 6679312560000,
            "relative_velocity": {
                "kilometers_per_second": "11.5620348229",
                "kilometers_per_hour": "41623.3253625167",
                "miles_per_hour": "25863.1156953927"
            },
            "miss_distance": {
                "astronomical": "0.1470695578",
                "lunar": "57.2100579842",
                "kilometers": "22001292.588721886",
                "miles": "13670969.2833625868"
            },
            "orbiting_body": "Earth"
        },
        {
            "close_approach_date": "2198-08-29",
            "close_approach_date_full": "2198-Aug-29 02:41",
            "epoch_date_close_approach": 7215792060000,
            "relative_velocity": {
                "kilometers_per_second": "11.6259778728",
                "kilometers_per_hour": "41853.5203420332",
                "miles_per_hour": "26006.1499036372"
            },
            "miss_distance": {
                "astronomical": "0.1446341571",
                "lunar": "56.2626871119",
                "kilometers": "21636961.831405377",
                "miles": "13444584.6483611226"
            },
            "orbiting_body": "Earth"
        }
    ],
    "orbital_data": {
        "orbit_id": "3",
        "orbit_determination_date": "2019-12-04 07:15:43",
        "first_observation_date": "2016-09-07",
        "last_observation_date": "2016-09-10",
        "data_arc_in_days": 3,
        "observations_used": 17,
        "orbit_uncertainty": "9",
        "minimum_orbit_intersection": ".145596",
        "jupiter_tisserand_invariant": "4.602",
        "epoch_osculation": "2457639.5",
        "eccentricity": ".1962015409690348",
        "semi_major_axis": "1.424900881990825",
        "inclination": "22.19105000304393",
        "ascending_node_longitude": "157.2347936982026",
        "orbital_period": "621.2628859989192",
        "perihelion_distance": "1.145333133216088",
        "perihelion_argument": "159.220242718675",
        "aphelion_distance": "1.704468630765561",
        "perihelion_time": "2457607.929972572773",
        "mean_anomaly": "18.29372095120051",
        "mean_motion": ".5794648418779459",
        "equinox": "J2000",
        "orbit_class": {
            "orbit_class_type": "AMO",
            "orbit_class_description": "Near-Earth asteroid orbits similar to that of 1221 Amor",
            "orbit_class_range": "1.017 AU < q (perihelion) < 1.3 AU"
        }
    },
    "is_sentry_object": false
}